OSCAR 7 (AO-7)          
1 07530U 74089B   26165.77406759 -.00000032  00000+0  88439-4 0  9999
2 07530 101.9901 178.9955 0012544 134.5939  39.7265 12.53698076360213
PHASE 3B (AO-10)        
1 14129U 83058B   26165.45605944  .00000123  00000+0  00000+0 0  9992
2 14129  25.9101 220.0173 6011772 114.9164 317.3873  2.05868899295432
UOSAT 2 (UO-11)         
1 14781U 84021B   26165.87216319  .00001088  00000+0  11636-3 0  9999
2 14781  97.8056 131.4727 0007417 180.3087 179.8127 14.90778203256783
LUSAT (LO-19)           
1 20442U 90005G   26165.53075125  .00000104  00000+0  53972-4 0  9998
2 20442  98.8851 187.2631 0010968 209.2439 150.8132 14.34122471902015
EYESAT A (AO-27)        
1 22825U 93061C   26165.76231133  .00000084  00000+0  48802-4 0  9991
2 22825  98.6881 233.1767 0009518 105.9918 254.2314 14.30941647706650
ITAMSAT (IO-26)         
1 22826U 93061D   26165.46283505  .00000084  00000+0  48466-4 0  9995
2 22826  98.6828 232.7945 0010097  92.1193 268.1146 14.31368412706922
RADIO ROSTO (RS15)      
1 23439U 94085A   26165.81006473 -.00000050  00000+0 -21367-3 0  9994
2 23439  64.8180 307.0607 0155878   4.3159 355.9069 11.27583512295636
JAS-2 (FO-29)           
1 24278U 96046B   26165.79734203  .00000017  00000+0  49334-4 0  9997
2 24278  98.5241  14.9969 0350875 102.6170 261.4438 13.53274198472843
TECHSAT 1B (GO-32)      
1 25397U 98043D   26165.74637066  .00000039  00000+0  36985-4 0  9995
2 25397  99.0067 158.4434 0000920 168.4150 191.7050 14.24427952450983
ISS (ZARYA)             
1 25544U 98067A   26165.80282117  .00008449  00000+0  16005-3 0  9998
2 25544  51.6336 311.8940 0004856 186.3522 173.7405 15.49231655571384
PCSAT (NO-44)           
1 26931U 01043C   26165.64488043  .00000096  00000+0  66722-4 0  9997
2 26931  67.0507 250.8474 0006070 264.5795  95.4615 14.31955289290085
SAUDISAT 1C (SO-50)     
1 27607U 02058C   26165.32313440  .00000923  00000+0  12619-3 0  9992
2 27607  64.5509 137.8468 0075333 263.0043  96.2490 14.83041320264030
CUTE-1 (CO-55)          
1 27844U 03031E   26165.57849404  .00000250  00000+0  12698-3 0  9998
2 27844  98.6736 174.1701 0009356 185.5498 174.5579 14.24334256191306
CUBESAT XI-IV (CO-57)   
1 27848U 03031J   26165.77649317  .00000203  00000+0  10839-3 0  9998
2 27848  98.6767 174.0803 0008869 204.4357 155.6402 14.23619629191033
MOZHAETS 4 (RS22)       
1 27939U 03042A   26165.84735670  .00001356  00000+0  21705-3 0  9991
2 27939  98.3465 350.1404 0009949 278.2594 206.6264 14.73465637215204
CUBESAT XI-V            
1 28895U 05043F   26165.68474505  .00001249  00000+0  20428-3 0  9997
2 28895  98.2983 321.2541 0013480 208.9550 151.0910 14.72625493101389
CUTE-1.7+APD II (CO-65) 
1 32785U 08021C   26165.86229626  .00004321  00000+0  27403-3 0  9995
2 32785  97.8270 147.2324 0010068  46.4137 313.7926 15.09433867984843
SEEDS II (CO-66)        
1 32791U 08021J   26165.72000341  .00016933  00000+0  53861-3 0  9997
2 32791  97.7509 163.4997 0001425  12.3890 347.7385 15.32677924986911
YUBILEINY (RS30)        
1 32953U 08025A   26165.84507743 -.00000006  00000+0 -11571-3 0  9990
2 32953  82.5042 356.8980 0018945 319.1714  40.7946 12.43179134819404
KKS-1 (KISEKI)          
1 33499U 09002H   26165.82781213  .00001221  00000+0  15658-3 0  9994
2 33499  98.1191  88.2326 0006650 305.0292  55.0296 14.83118775935847
SWISSCUBE               
1 35932U 09051B   26165.63721316  .00000885  00000+0  18441-3 0  9997
2 35932  98.4039  73.4810 0005810 212.0978 147.9870 14.62477414888788
BEESAT-1                
1 35933U 09051C   26165.64532213  .00000731  00000+0  15655-3 0  9999
2 35933  98.3967  73.1301 0004093 226.7801 133.3058 14.61716870888811
ITUPSAT1                
1 35935U 09051E   26165.22290826  .00000683  00000+0  15098-3 0  9993
2 35935  98.4052  71.8963 0006164 244.9503 115.1057 14.60436749888304
XIWANG-1 (HOPE-1)       
1 36122U 09072B   26165.73590998 -.00000216  00000+0 -44809-3 0  9990
2 36122 100.4022 119.6069 0006864 237.4832 122.5618 13.16438949792685
O/OREOS (USA 219)       
1 37224U 10062C   26165.85220985  .00002191  00000+0  21245-3 0  9995
2 37224  71.9714  85.6284 0012489  68.1773 292.0725 14.93736137116298
JUGNU                   
1 37839U 11058B   26165.75030949  .00000400  00000+0  69403-4 0  9991
2 37839  19.9619 323.2340 0018612  49.4595 345.2293 14.13776119758680
SRMSAT                  
1 37841U 11058D   26165.48601053  .00000355  00000+0  48806-4 0  9997
2 37841  19.9719  75.8168 0011843 173.9008   0.9019 14.11575039757432
STRAND-1                
1 39090U 13009E   26165.75848832  .00000234  00000+0  92916-4 0  9998
2 39090  98.3921 346.0527 0007612 233.5298 126.5188 14.37162022696718
ZACUBE-1 (TSHEPISOSAT)  
1 39417U 13066B   26165.87437169  .00003043  00000+0  23821-3 0  9993
2 39417  97.8082 128.1989 0040555 255.7750 103.8967 15.01177435680381
GOMX-1                  
1 39430U 13066Q   26165.80269187  .00002648  00000+0  39989-3 0  9996
2 39430  97.6481   6.4166 0130187  85.1182 276.4875 14.69455312669565
